{
  "type": "FeatureCollection",
  "features": [
    {
      "type": "Feature",
      "geometry": {
        "type": "Point",
        "coordinates": [
          -17.9151945,
          28.6592222
        ]
      },
      "properties": {
        "ref:ine": "38024",
        "name": "Los Llanos de Aridane",
        "type": "node",
        "id": "29017252"
      }
    },
    {
      "type": "Feature",
      "geometry": {
        "type": "Point",
        "coordinates": [
          -17.8885664,
          28.5529423
        ]
      },
      "properties": {
        "ref:ine": "38024000302",
        "name": "El Remo",
        "type": "node",
        "id": "295063544"
      }
    },
    {
      "type": "Feature",
      "geometry": {
        "type": "Point",
        "coordinates": [
          -17.910201,
          28.5858953
        ]
      },
      "properties": {
        "ref:ine": "38024000300",
        "name": "Puerto Naos",
        "type": "node",
        "id": "295063758"
      }
    },
    {
      "type": "Feature",
      "geometry": {
        "type": "Point",
        "coordinates": [
          -17.9238716,
          28.6601324
        ]
      },
      "properties": {
        "ref:ine": "38024000100",
        "name": "Argual",
        "type": "node",
        "id": "583542201"
      }
    },
    {
      "type": "Feature",
      "geometry": {
        "type": "Point",
        "coordinates": [
          -17.9053619,
          28.6547511
        ]
      },
      "properties": {
        "ref:ine": "38024000101",
        "name": "Hermosilla",
        "type": "node",
        "id": "583542205"
      }
    },
    {
      "type": "Feature",
      "geometry": {
        "type": "Point",
        "coordinates": [
          -17.8816652,
          28.6013543
        ]
      },
      "properties": {
        "ref:ine": "38024000400",
        "name": "Las Manchas",
        "type": "node",
        "id": "583587411"
      }
    },
    {
      "type": "Feature",
      "geometry": {
        "type": "Point",
        "coordinates": [
          -17.90767,
          28.6381051
        ]
      },
      "properties": {
        "ref:ine": "38024001205",
        "name": "Las Martelas",
        "type": "node",
        "id": "11177444288"
      }
    }
  ]
}